{
    "links": {
        "self": "http://www.neowsapp.com/rest/v1/neo/3555765?api_key=iIulBulltgU6a56xZRHN4H3l9WmuAYTsLGpBGhQ2"
    },
    "id": "3555765",
    "neo_reference_id": "3555765",
    "name": "(2011 BA19)",
    "designation": "2011 BA19",
    "nasa_jpl_url": "http://ssd.jpl.nasa.gov/sbdb.cgi?sstr=3555765",
    "absolute_magnitude_h": 25.8,
    "estimated_diameter": {
        "kilometers": {
            "estimated_diameter_min": 0.0183888672,
            "estimated_diameter_max": 0.0411187571
        },
        "meters": {
            "estimated_diameter_min": 18.388867207,
            "estimated_diameter_max": 41.1187571041
        },
        "miles": {
            "estimated_diameter_min": 0.0114263088,
            "estimated_diameter_max": 0.0255500032
        },
        "feet": {
            "estimated_diameter_min": 60.3309310875,
            "estimated_diameter_max": 134.9040630575
        }
    },
    "is_potentially_hazardous_asteroid": false,
    "close_approach_data": [
        {
            "close_approach_date": "2009-01-18",
            "close_approach_date_full": "2009-Jan-18 03:59",
            "epoch_date_close_approach": 1232251140000,
            "relative_velocity": {
                "kilometers_per_second": "25.559645118",
                "kilometers_per_hour": "92014.7224248749",
                "miles_per_hour": "57174.3701645007"
            },
            "miss_distance": {
                "astronomical": "0.4180069317",
                "lunar": "162.6046964313",
                "kilometers": "62532946.627555479",
                "miles": "38856171.2497604502"
            },
            "orbiting_body": "Earth"
        },
        {
            "close_approach_date": "2010-01-26",
            "close_approach_date_full": "2010-Jan-26 05:54",
            "epoch_date_close_approach": 1264485240000,
            "relative_velocity": {
                "kilometers_per_second": "19.756772617",
                "kilometers_per_hour": "71124.3814211651",
                "miles_per_hour": "44193.9246669456"
            },
            "miss_distance": {
                "astronomical": "0.211196858",
                "lunar": "82.155577762",
                "kilometers": "31594600.10749246",
                "miles": "19631974.160057548"
            },
            "orbiting_body": "Earth"
        },
        {
            "close_approach_date": "2011-02-01",
            "close_approach_date_full": "2011-Feb-01 10:48",
            "epoch_date_close_approach": 1296557280000,
            "relative_velocity": {
                "kilometers_per_second": "14.7546495763",
                "kilometers_per_hour": "53116.7384747394",
                "miles_per_hour": "33004.6756372624"
            },
            "miss_distance": {
                "astronomical": "0.0391839968",
                "lunar": "15.2425747552",
                "kilometers": "5861842.459366816",
                "miles": "3642380.0048454208"
            },
            "orbiting_body": "Earth"
        },
        {
            "close_approach_date": "2012-01-31",
            "close_approach_date_full": "2012-Jan-31 08:06",
            "epoch_date_close_approach": 1327997160000,
            "relative_velocity": {
                "kilometers_per_second": "11.7521272164",
                "kilometers_per_hour": "42307.6579791635",
                "miles_per_hour": "26288.3333704419"
            },
            "miss_distance": {
                "astronomical": "0.2123184443",
                "lunar": "82.5918748327",
                "kilometers": "31762387.028993641",
                "miles": "19736232.1185726058"
            },
            "orbiting_body": "Earth"
        },
        {
            "close_approach_date": "2013-01-12",
            "close_approach_date_full": "2013-Jan-12 15:29",
            "epoch_date_close_approach": 1358004540000,
            "relative_velocity": {
                "kilometers_per_second": "11.5059650284",
                "kilometers_per_hour": "41421.4741021928",
                "miles_per_hour": "25737.6931719987"
            },
            "miss_distance": {
                "astronomical": "0.3833791071",
                "lunar": "149.1344726619",
                "kilometers": "57352697.824661877",
                "miles": "35637313.9040408226"
            },
            "orbiting_body": "Earth"
        }
    ],
    "orbital_data": {
        "orbit_id": "7",
        "orbit_determination_date": "2017-04-06 08:54:49",
        "first_observation_date": "2011-01-27",
        "last_observation_date": "2011-01-31",
        "data_arc_in_days": 4,
        "observations_used": 27,
        "orbit_uncertainty": "8",
        "minimum_orbit_intersection": ".0390511",
        "jupiter_tisserand_invariant": "5.868",
        "epoch_osculation": "2455589.5",
        "eccentricity": ".3276517090580187",
        "semi_major_axis": "1.022865420566163",
        "inclination": "21.29195656476291",
        "ascending_node_longitude": "307.9094418022405",
        "orbital_period": "377.8558690003513",
        "perihelion_distance": ".6877218173813108",
        "perihelion_argument": "291.8884513415757",
        "aphelion_distance": "1.358009023751016",
        "perihelion_time": "2455667.062505874181",
        "mean_anomaly": "286.1027698509052",
        "mean_motion": ".9527442327478187",
        "equinox": "J2000",
        "orbit_class": {
            "orbit_class_type": "APO",
            "orbit_class_description": "Near-Earth asteroid orbits which cross the Earth’s orbit similar to that of 1862 Apollo",
            "orbit_class_range": "a (semi-major axis) > 1.0 AU; q (perihelion) < 1.017 AU"
        }
    },
    "is_sentry_object": false
}